{
  "norad_id": 51123,
  "name": "STARLINK-3392",
  "history": [
    {
      "epoch": "2026-05-08T20:43:20.674272Z",
      "apogee_km": 540.6907983054771,
      "perigee_km": 538.8202001736836,
      "latitude_deg": -3.3378033936106534e-05,
      "longitude_deg": -158.53432637766832,
      "height_km": 540.8552516552828,
      "semi_major_axis_km": 6917.8924992395805,
      "eccentricity": 0.0001352,
      "inclination_deg": 53.2194,
      "raan_deg": 18.9911,
      "arg_perigee_deg": 102.5842,
      "mean_anomaly_deg": 257.5301,
      "mean_motion_rev_day": 15.08836038
    },
    {
      "epoch": "2026-05-09T09:26:25.488384Z",
      "apogee_km": 540.6854223074934,
      "perigee_km": 538.7940748044375,
      "latitude_deg": -8.849597384838606e-06,
      "longitude_deg": 7.794622037853568,
      "height_km": 540.7264765110738,
      "semi_major_axis_km": 6917.876748555965,
      "eccentricity": 0.0001367,
      "inclination_deg": 53.2198,
      "raan_deg": 16.6124,
      "arg_perigee_deg": 95.5078,
      "mean_anomaly_deg": 264.607,
      "mean_motion_rev_day": 15.08841191
    },
    {
      "epoch": "2026-05-10T20:24:54.876096Z",
      "apogee_km": 540.6924822597002,
      "perigee_km": 538.7803820430527,
      "latitude_deg": 4.973752418521096e-05,
      "longitude_deg": -164.8060504855093,
      "height_km": 540.4165750105301,
      "semi_major_axis_km": 6917.873432151376,
      "eccentricity": 0.0001382,
      "inclination_deg": 53.2196,
      "raan_deg": 10.0705,
      "arg_perigee_deg": 76.9539,
      "mean_anomaly_deg": 283.1608,
      "mean_motion_rev_day": 15.08842276
    },
    {
      "epoch": "2026-05-11T20:15:41.897088Z",
      "apogee_km": 540.9452356916054,
      "perigee_km": 538.5613307000158,
      "latitude_deg": -3.868451705604643e-05,
      "longitude_deg": -167.94417390362614,
      "height_km": 540.6928590185098,
      "semi_major_axis_km": 6917.89028319581,
      "eccentricity": 0.0001723,
      "inclination_deg": 53.2199,
      "raan_deg": 5.6077,
      "arg_perigee_deg": 92.1208,
      "mean_anomaly_deg": 267.9981,
      "mean_motion_rev_day": 15.08836763
    },
    {
      "epoch": "2026-05-12T20:06:28.773792Z",
      "apogee_km": 540.6691829353358,
      "perigee_km": 538.7833734057058,
      "latitude_deg": 6.194632769007792e-05,
      "longitude_deg": -171.0792532613379,
      "height_km": 541.0016855119694,
      "semi_major_axis_km": 6917.86327817052,
      "eccentricity": 0.0001363,
      "inclination_deg": 53.2186,
      "raan_deg": 1.1472,
      "arg_perigee_deg": 113.7288,
      "mean_anomaly_deg": 246.3848,
      "mean_motion_rev_day": 15.08845598
    },
    {
      "epoch": "2026-05-13T21:32:39.234048Z",
      "apogee_km": 540.7310659758323,
      "perigee_km": 538.778006837274,
      "latitude_deg": 9.664094638011379e-06,
      "longitude_deg": 161.57639492495022,
      "height_km": 540.6686972857588,
      "semi_major_axis_km": 6917.891536406552,
      "eccentricity": 0.00014116,
      "inclination_deg": 53.2187,
      "raan_deg": 356.3911,
      "arg_perigee_deg": 91.0791,
      "mean_anomaly_deg": 269.0363,
      "mean_motion_rev_day": 15.08836353
    }
  ]
}